{
  "type": "FeatureCollection",
  "features": [
    {
      "type": "Feature",
      "properties": {
        "rank": 1,
        "score": 0.0384,
        "length_m": 0.0
      },
      "geometry": {
        "type": "LineString",
        "coordinates": [
          [
            11.5688014,
            48.1444287
          ],
          [
            11.5688711,
            48.1443863
          ],
          [
            11.5690486,
            48.1443368
          ],
          [
            11.569123,
            48.1443295
          ],
          [
            11.5692541,
            48.1443336
          ],
          [
            11.5694718,
            48.1442404
          ],
          [
            11.5696218,
            48.1440306
          ],
          [
            11.5698916,
            48.1436532
          ],
          [
            11.570478,
            48.1428332
          ],
          [
            11.5705246,
            48.142768
          ],
          [
            11.5705709,
            48.1427028
          ],
          [
            11.5708835,
            48.1422626
          ],
          [
            11.5709366,
            48.1421939
          ],
          [
            11.5709786,
            48.1421323
          ],
          [
            11.5712656,
            48.1417276
          ],
          [
            11.5713079,
            48.1416679
          ],
          [
            11.5714823,
            48.1417203
          ],
          [
            11.5715336,
            48.1416481
          ],
          [
            11.5719205,
            48.1414922
          ],
          [
            11.5745213,
            48.1408165
          ],
          [
            11.5743489,
            48.1406013
          ],
          [
            11.5751338,
            48.1403154
          ],
          [
            11.5759925,
            48.1400284
          ],
          [
            11.5761013,
            48.1399976
          ],
          [
            11.57613,
            48.1400541
          ],
          [
            11.5762436,
            48.1400359
          ],
          [
            11.5761358,
            48.1398341
          ],
          [
            11.5764053,
            48.1397977
          ],
          [
            11.5773315,
            48.1396726
          ],
          [
            11.577449,
            48.1395973
          ],
          [
            11.5774781,
            48.1395787
          ],
          [
            11.5775661,
            48.1395643
          ],
          [
            11.5784143,
            48.1394129
          ],
          [
            11.578882,
            48.1393265
          ],
          [
            11.5799449,
            48.1391224
          ],
          [
            11.580174,
            48.1390799
          ],
          [
            11.580208,
            48.139156
          ],
          [
            11.5802997,
            48.1393855
          ],
          [
            11.5807195,
            48.1392902
          ],
          [
            11.5810695,
            48.1397054
          ],
          [
            11.5811149,
            48.1396929
          ],
          [
            11.5812362,
            48.139837
          ],
          [
            11.5812568,
            48.1398581
          ],
          [
            11.581278,
            48.1398819
          ],
          [
            11.5817967,
            48.1406059
          ],
          [
            11.5818151,
            48.1406462
          ],
          [
            11.582587,
            48.1411803
          ],
          [
            11.5826004,
            48.1412113
          ],
          [
            11.5827741,
            48.1411707
          ],
          [
            11.5827592,
            48.1412662
          ],
          [
            11.5828848,
            48.1412795
          ],
          [
            11.5829896,
            48.1412923
          ],
          [
            11.5831055,
            48.1413061
          ],
          [
            11.5832225,
            48.141605
          ],
          [
            11.5832431,
            48.1417106
          ],
          [
            11.5837395,
            48.142728
          ],
          [
            11.5838175,
            48.1428894
          ],
          [
            11.5837395,
            48.142728
          ],
          [
            11.5838911,
            48.1426948
          ],
          [
            11.5838745,
            48.1426603
          ],
          [
            11.5835904,
            48.1415871
          ],
          [
            11.5847668,
            48.1416173
          ],
          [
            11.5847833,
            48.1414433
          ],
          [
            11.5854014,
            48.1414384
          ],
          [
            11.5856731,
            48.1414579
          ],
          [
            11.5858533,
            48.1415139
          ],
          [
            11.5862225,
            48.1414986
          ],
          [
            11.5864455,
            48.1406772
          ],
          [
            11.586615,
            48.1402713
          ],
          [
            11.5866249,
            48.1402444
          ],
          [
            11.5866571,
            48.1401661
          ],
          [
            11.5866861,
            48.1401093
          ],
          [
            11.5869942,
            48.1397691
          ],
          [
            11.5871134,
            48.1394983
          ],
          [
            11.5874285,
            48.139458
          ]
        ]
      }
    }
  ]
}